{
  "type": "FeatureCollection",
  "features": [
    {
      "type": "Feature",
      "properties": {
        "name": "City A",
        "population": 100000
      },
      "geometry": {
        "type": "Point",
        "coordinates": [-122.4194, 37.7749]
      }
    },
    {
      "type": "Feature",
      "properties": {
        "name": "City B",
        "population": 200000
      },
      "geometry": {
        "type": "Point",
        "coordinates": [-118.2437, 34.0522]
      }
    },
    {
      "type": "Feature",
      "properties": {
        "name": "City C",
        "population": 150000
      },
      "geometry": {
        "type": "Point",
        "coordinates": [-87.6298, 41.8781]
      }
    }
  ]
}
